*******************************************************************************
Ephemeris / WWW_USER Mon Mar 24 08:31:11 2025 Pasadena, USA      / Horizons    
*******************************************************************************
Target body name: (2018 WV1)                      {source: JPL#17}
Center body name: Earth (399)                     {source: DE441}
Center-site name: Mauna Kea
*******************************************************************************
Start time      : A.D. 2018-Nov-11 03:53:00.0000 UT      
Stop  time      : A.D. 2018-Nov-11 16:18:00.0000 UT      
Step-size       : 1 minutes
*******************************************************************************
Target pole/equ : undefined
Target radii    : undefined                                                    
Center geodetic : 204.5278, 19.8260847, 4.21024   {E-lon(deg),Lat(deg),Alt(km)}
Center cylindric: 204.5278, 6006.35451, 2151.0229 {E-lon(deg),Dxy(km),Dz(km)}
Center pole/equ : ITRF93                          {East-longitude positive}
Center radii    : 6378.137, 6378.137, 6356.752 km {Equator_a, b, pole_c}       
Target primary  : Sun
Vis. interferer : MOON (R_eq= 1737.400) km        {source: DE441}
Rel. light bend : Sun                             {source: DE441}
Rel. lght bnd GM: 1.3271E+11 km^3/s^2                                          
Small-body perts: Yes                             {source: SB441-N16}
Atmos refraction: NO (AIRLESS)
RA format       : HMS
Time format     : CAL 
Calendar mode   : Mixed Julian/Gregorian
RTS-only print  : NO       
EOP file        : eop.250321.p250617                                           
EOP coverage    : DATA-BASED 1962-JAN-20 TO 2025-MAR-21. PREDICTS-> 2025-JUN-16
Units conversion: 1 au= 149597870.700 km, c= 299792.458 km/s, 1 day= 86400.0 s 
Table cut-offs 1: Elevation (-90.0deg=NO ),Airmass (>38.000=NO), Daylight (YES)
Table cut-offs 2: Solar elongation (  0.0,180.0=NO ),Local Hour Angle( 0.0=NO )
Table cut-offs 3: RA/DEC angular rate (     0.0=NO )                           
*******************************************************************************
Initial IAU76/J2000 heliocentric ecliptic osculating elements (au, days, deg.):
  EPOCH=  2458458.5 ! 2018-Dec-06.00 (TDB)         Residual RMS= .12928        
   EC= .06869100257422787  QR= .9715505345748198   TP= 2458416.866413563       
   OM= 248.5061090469913   W=  141.3742304527303   IN= 1.905403987972275       
  Equivalent ICRF heliocentric cartesian coordinates (au, au/d):
   X= 2.787163119783287E-01  Y= 8.719775267121872E-01  Z= 3.748421051204766E-01
  VX=-1.676682657337402E-02 VY= 5.516972965834891E-03 VZ= 1.749720915605096E-03
Asteroid physical parameters (km, seconds, rotational period in hours):        
   GM= n.a.                RAD= n.a.               ROTPER= n.a.                
   H= 30.3                 G= .150                 B-V= n.a.                   
                           ALBEDO= n.a.            STYP= n.a.                  
*******************************************************************************
 Date__(UT)__HR:MN     R.A._________(ICRF)_________DEC
******************************************************
$$SOE
 2018-Nov-11 03:53 Cm  01 38 12.504077 +22 14 08.35513
 2018-Nov-11 03:54 Cm  01 38 12.427883 +22 14 08.97913
 2018-Nov-11 03:55 Cm  01 38 12.351211 +22 14 09.60233
 2018-Nov-11 03:56 Cm  01 38 12.274063 +22 14 10.22473
 2018-Nov-11 03:57 Cm  01 38 12.196438 +22 14 10.84631
 2018-Nov-11 03:58 Cm  01 38 12.118338 +22 14 11.46705
 2018-Nov-11 03:59 Cm  01 38 12.039764 +22 14 12.08696
 2018-Nov-11 04:00 Cm  01 38 11.960715 +22 14 12.70601
 2018-Nov-11 04:01 Cm  01 38 11.881193 +22 14 13.32420
 2018-Nov-11 04:02 Cm  01 38 11.801198 +22 14 13.94152
 2018-Nov-11 04:03 Cm  01 38 11.720731 +22 14 14.55794
 2018-Nov-11 04:04 Cm  01 38 11.639793 +22 14 15.17348
 2018-Nov-11 04:05 Cm  01 38 11.558385 +22 14 15.78810
 2018-Nov-11 04:06 Cm  01 38 11.476506 +22 14 16.40181
 2018-Nov-11 04:07 Nm  01 38 11.394159 +22 14 17.01459
 2018-Nov-11 04:08 Nm  01 38 11.311343 +22 14 17.62642
 2018-Nov-11 04:09 Nm  01 38 11.228060 +22 14 18.23731
 2018-Nov-11 04:10 Nm  01 38 11.144310 +22 14 18.84724
 2018-Nov-11 04:11 Nm  01 38 11.060094 +22 14 19.45619
 2018-Nov-11 04:12 Nm  01 38 10.975413 +22 14 20.06416
 2018-Nov-11 04:13 Nm  01 38 10.890267 +22 14 20.67113
 2018-Nov-11 04:14 Nm  01 38 10.804658 +22 14 21.27710
 2018-Nov-11 04:15 Nm  01 38 10.718585 +22 14 21.88206
 2018-Nov-11 04:16 Nm  01 38 10.632051 +22 14 22.48598
 2018-Nov-11 04:17 Nm  01 38 10.545056 +22 14 23.08887
 2018-Nov-11 04:18 Nm  01 38 10.457601 +22 14 23.69071
 2018-Nov-11 04:19 Nm  01 38 10.369686 +22 14 24.29150
 2018-Nov-11 04:20 Nm  01 38 10.281313 +22 14 24.89121
 2018-Nov-11 04:21 Nm  01 38 10.192481 +22 14 25.48984
 2018-Nov-11 04:22 Nm  01 38 10.103193 +22 14 26.08739
 2018-Nov-11 04:23 Nm  01 38 10.013449 +22 14 26.68383
 2018-Nov-11 04:24 Nm  01 38 09.923250 +22 14 27.27916
 2018-Nov-11 04:25 Nm  01 38 09.832597 +22 14 27.87337
 2018-Nov-11 04:26 Nm  01 38 09.741491 +22 14 28.46644
 2018-Nov-11 04:27 Nm  01 38 09.649932 +22 14 29.05837
 2018-Nov-11 04:28 Nm  01 38 09.557922 +22 14 29.64915
 2018-Nov-11 04:29 Nm  01 38 09.465462 +22 14 30.23876
 2018-Nov-11 04:30 Nm  01 38 09.372552 +22 14 30.82720
 2018-Nov-11 04:31 Nm  01 38 09.279194 +22 14 31.41445
 2018-Nov-11 04:32 Nm  01 38 09.185388 +22 14 32.00050
 2018-Nov-11 04:33 Nm  01 38 09.091135 +22 14 32.58535
 2018-Nov-11 04:34 Am  01 38 08.996437 +22 14 33.16899
 2018-Nov-11 04:35 Am  01 38 08.901294 +22 14 33.75139
 2018-Nov-11 04:36 Am  01 38 08.805708 +22 14 34.33256
 2018-Nov-11 04:37 Am  01 38 08.709679 +22 14 34.91248
 2018-Nov-11 04:38 Am  01 38 08.613208 +22 14 35.49114
 2018-Nov-11 04:39 Am  01 38 08.516297 +22 14 36.06854
 2018-Nov-11 04:40 Am  01 38 08.418946 +22 14 36.64465
 2018-Nov-11 04:41 Am  01 38 08.321157 +22 14 37.21948
 2018-Nov-11 04:42 Am  01 38 08.222931 +22 14 37.79301
 2018-Nov-11 04:43 Am  01 38 08.124268 +22 14 38.36522
 2018-Nov-11 04:44 Am  01 38 08.025170 +22 14 38.93612
 2018-Nov-11 04:45 Am  01 38 07.925638 +22 14 39.50569
 2018-Nov-11 04:46 Am  01 38 07.825672 +22 14 40.07392
 2018-Nov-11 04:47 Am  01 38 07.725275 +22 14 40.64080
 2018-Nov-11 04:48 Am  01 38 07.624446 +22 14 41.20633
 2018-Nov-11 04:49 Am  01 38 07.523188 +22 14 41.77048
 2018-Nov-11 04:50 Am  01 38 07.421501 +22 14 42.33325
 2018-Nov-11 04:51 Am  01 38 07.319387 +22 14 42.89463
 2018-Nov-11 04:52 Am  01 38 07.216846 +22 14 43.45461
 2018-Nov-11 04:53 Am  01 38 07.113880 +22 14 44.01319
 2018-Nov-11 04:54 Am  01 38 07.010489 +22 14 44.57034
 2018-Nov-11 04:55 Am  01 38 06.906676 +22 14 45.12606
 2018-Nov-11 04:56 Am  01 38 06.802441 +22 14 45.68035
 2018-Nov-11 04:57 Am  01 38 06.697786 +22 14 46.23318
 2018-Nov-11 04:58 Am  01 38 06.592711 +22 14 46.78456
 2018-Nov-11 04:59 Am  01 38 06.487217 +22 14 47.33447
 2018-Nov-11 05:00  m  01 38 06.381307 +22 14 47.88290
 2018-Nov-11 05:01  m  01 38 06.274981 +22 14 48.42984
 2018-Nov-11 05:02  m  01 38 06.168240 +22 14 48.97528
 2018-Nov-11 05:03  m  01 38 06.061086 +22 14 49.51922
 2018-Nov-11 05:04  m  01 38 05.953520 +22 14 50.06164
 2018-Nov-11 05:05  m  01 38 05.845543 +22 14 50.60253
 2018-Nov-11 05:06  m  01 38 05.737157 +22 14 51.14189
 2018-Nov-11 05:07  m  01 38 05.628362 +22 14 51.67970
 2018-Nov-11 05:08  m  01 38 05.519160 +22 14 52.21595
 2018-Nov-11 05:09  m  01 38 05.409552 +22 14 52.75064
 2018-Nov-11 05:10  m  01 38 05.299539 +22 14 53.28376
 2018-Nov-11 05:11  m  01 38 05.189123 +22 14 53.81529
 2018-Nov-11 05:12  m  01 38 05.078306 +22 14 54.34523
 2018-Nov-11 05:13  m  01 38 04.967088 +22 14 54.87357
 2018-Nov-11 05:14  m  01 38 04.855470 +22 14 55.40029
 2018-Nov-11 05:15  m  01 38 04.743454 +22 14 55.92540
 2018-Nov-11 05:16  m  01 38 04.631042 +22 14 56.44887
 2018-Nov-11 05:17  m  01 38 04.518234 +22 14 56.97071
 2018-Nov-11 05:18  m  01 38 04.405033 +22 14 57.49089
 2018-Nov-11 05:19  m  01 38 04.291439 +22 14 58.00942
 2018-Nov-11 05:20  m  01 38 04.177453 +22 14 58.52628
 2018-Nov-11 05:21  m  01 38 04.063078 +22 14 59.04146
 2018-Nov-11 05:22  m  01 38 03.948314 +22 14 59.55496
 2018-Nov-11 05:23  m  01 38 03.833163 +22 15 00.06676
 2018-Nov-11 05:24  m  01 38 03.717626 +22 15 00.57686
 2018-Nov-11 05:25  m  01 38 03.601705 +22 15 01.08525
 2018-Nov-11 05:26  m  01 38 03.485401 +22 15 01.59192
 2018-Nov-11 05:27  m  01 38 03.368716 +22 15 02.09685
 2018-Nov-11 05:28  m  01 38 03.251650 +22 15 02.60005
 2018-Nov-11 05:29  m  01 38 03.134206 +22 15 03.10149
 2018-Nov-11 05:30  m  01 38 03.016385 +22 15 03.60119
 2018-Nov-11 05:31  m  01 38 02.898187 +22 15 04.09911
 2018-Nov-11 05:32  m  01 38 02.779616 +22 15 04.59526
 2018-Nov-11 05:33  m  01 38 02.660671 +22 15 05.08963
 2018-Nov-11 05:34  m  01 38 02.541356 +22 15 05.58220
 2018-Nov-11 05:35  m  01 38 02.421670 +22 15 06.07298
 2018-Nov-11 05:36  m  01 38 02.301616 +22 15 06.56194
 2018-Nov-11 05:37  m  01 38 02.181195 +22 15 07.04909
 2018-Nov-11 05:38  m  01 38 02.060408 +22 15 07.53441
 2018-Nov-11 05:39  m  01 38 01.939258 +22 15 08.01789
 2018-Nov-11 05:40  m  01 38 01.817745 +22 15 08.49953
 2018-Nov-11 05:41  m  01 38 01.695871 +22 15 08.97932
 2018-Nov-11 05:42  m  01 38 01.573638 +22 15 09.45725
 2018-Nov-11 05:43  m  01 38 01.451047 +22 15 09.93331
 2018-Nov-11 05:44  m  01 38 01.328100 +22 15 10.40749
 2018-Nov-11 05:45  m  01 38 01.204798 +22 15 10.87979
 2018-Nov-11 05:46  m  01 38 01.081142 +22 15 11.35019
 2018-Nov-11 05:47  m  01 38 00.957135 +22 15 11.81869
 2018-Nov-11 05:48  m  01 38 00.832778 +22 15 12.28528
 2018-Nov-11 05:49  m  01 38 00.708073 +22 15 12.74995
 2018-Nov-11 05:50  m  01 38 00.583020 +22 15 13.21270
 2018-Nov-11 05:51  m  01 38 00.457622 +22 15 13.67351
 2018-Nov-11 05:52  m  01 38 00.331881 +22 15 14.13237
 2018-Nov-11 05:53  m  01 38 00.205797 +22 15 14.58929
 2018-Nov-11 05:54  m  01 38 00.079373 +22 15 15.04425
 2018-Nov-11 05:55  m  01 37 59.952610 +22 15 15.49724
